ONEWEB-0095             
1 45436U 20020N   25274.17185973 -.00000395  00000+0 -11499-2 0  9991
2 45436  87.8789  72.6584 0002437  88.5831 271.5576 13.11417928268727
ONEWEB-0092             
1 45437U 20020P   25273.99114768  .00000070  00000+0  16285-3 0  9992
2 45437  87.8796  72.6875 0001887  89.1954 270.9390 13.11416445268810
ONEWEB-0085             
1 45438U 20020Q   25273.95130334 -.00000029  00000+0 -11626-3 0  9996
2 45438  87.8794  72.7083 0001667  91.6580 268.4739 13.11419790268691
ONEWEB-0096             
1 45439U 20020R   25273.95300435  .00000093  00000+0  22634-3 0  9998
2 45439  87.8808  72.6800 0001458  90.1427 269.9868 13.11418554268681
ONEWEB-0037             
1 45440U 20020S   25274.16238437 -.00000638  00000+0 -18348-2 0  9999
2 45440  87.8810  72.6041 0001758  91.0083 269.1246 13.11416361268747
ONEWEB-0042             
1 45441U 20020T   25274.17157070 -.00000486  00000+0 -14081-2 0  9995
2 45441  87.8797  72.6402 0001699  88.7394 271.3928 13.11416681268719
ONEWEB-0098             
1 45442U 20020U   25274.16746977 -.00000683  00000+0 -19636-2 0  9995
2 45442  87.8797  72.6515 0001652  95.1941 264.9375 13.11416565268696
ONEWEB-0055             
1 45443U 20020V   25273.99792163 -.00000237  00000+0 -70435-3 0  9994
2 45443  87.8796  72.6871 0001671  96.1976 263.9342 13.11414243268640
ONEWEB-0093             
1 45444U 20020W   25274.20238212  .00000371  00000+0  10109-2 0  9998
2 45444  87.8801  72.6315 0001544  77.2212 282.9088 13.11415088268739
ONEWEB-0029             
1 45445U 20020X   25273.98945108  .00000152  00000+0  39428-3 0  9995
2 45445  87.8801  72.6867 0001536  90.2954 269.8350 13.11414897268688
ONEWEB-0068             
1 45446U 20020Y   25274.20210863  .00000495  00000+0  13599-2 0  9995
2 45446  87.8800  72.6327 0001514  88.9322 271.1979 13.11415842268659
ONEWEB-0046             
1 45447U 20020Z   25273.88858068  .00000570  00000+0  15722-2 0  9998
2 45447  87.8797  72.7046 0001723  83.5728 276.5596 13.11417493268622
ONEWEB-0063             
1 45448U 20020AA  25273.99368572 -.00000043  00000+0 -15688-3 0  9996
2 45448  87.8796  72.6819 0001868  88.8641 271.2701 13.11413699268726
ONEWEB-0019             
1 45449U 20020AB  25273.96741824  .00000608  00000+0  16795-2 0  9993
2 45449  87.8792  72.7024 0001586  94.6913 265.4396 13.11418330268560
ONEWEB-0094             
1 45450U 20020AC  25274.33654748  .00001060  00000+0  26977-2 0  9991
2 45450  87.9080  57.3109 0001609  95.7189 264.4126 13.17645600272225
ONEWEB-0087             
1 45451U 20020AD  25273.69853024 -.00000482  00000+0 -13963-2 0  9998
2 45451  87.8807  72.6917 0001347  87.9095 272.2188 13.11414405268576
ONEWEB-0082             
1 45452U 20020AE  25273.84787950 -.00000305  00000+0 -89642-3 0  9992
2 45452  87.8806  72.6873 0001460  94.2698 265.8597 13.11415009268688
