[{"OBJECT_NAME":"ONEWEB-0095","OBJECT_ID":"2020-020N","EPOCH":"2025-10-01T04:07:28.680672","MEAN_MOTION":13.11417928,"ECCENTRICITY":0.00024378,"INCLINATION":87.8789,"RA_OF_ASC_NODE":72.6584,"ARG_OF_PERICENTER":88.5831,"MEAN_ANOMALY":271.5576,"EPHEMERIS_TYPE":0,"CLASSIFICATION_TYPE":"U","NORAD_CAT_ID":45436,"ELEMENT_SET_NO":999,"REV_AT_EPOCH":26872,"BSTAR":-0.0011499308,"MEAN_MOTION_DOT":-3.95e-6,"MEAN_MOTION_DDOT":0},{"OBJECT_NAME":"ONEWEB-0092","OBJECT_ID":"2020-020P","EPOCH":"2025-09-30T23:47:15.159552","MEAN_MOTION":13.11416445,"ECCENTRICITY":0.00018877,"INCLINATION":87.8796,"RA_OF_ASC_NODE":72.6875,"ARG_OF_PERICENTER":89.1954,"MEAN_ANOMALY":270.939,"EPHEMERIS_TYPE":0,"CLASSIFICATION_TYPE":"U","NORAD_CAT_ID":45437,"ELEMENT_SET_NO":999,"REV_AT_EPOCH":26881,"BSTAR":0.00016285119,"MEAN_MOTION_DOT":7.0e-7,"MEAN_MOTION_DDOT":0},{"OBJECT_NAME":"ONEWEB-0085","OBJECT_ID":"2020-020Q","EPOCH":"2025-09-30T22:49:52.608576","MEAN_MOTION":13.1141979,"ECCENTRICITY":0.0001667,"INCLINATION":87.8794,"RA_OF_ASC_NODE":72.7083,"ARG_OF_PERICENTER":91.658,"MEAN_ANOMALY":268.4739,"EPHEMERIS_TYPE":0,"CLASSIFICATION_TYPE":"U","NORAD_CAT_ID":45438,"ELEMENT_SET_NO":999,"REV_AT_EPOCH":26869,"BSTAR":-0.00011626019,"MEAN_MOTION_DOT":-2.9e-7,"MEAN_MOTION_DDOT":0},{"OBJECT_NAME":"ONEWEB-0096","OBJECT_ID":"2020-020R","EPOCH":"2025-09-30T22:52:19.575840","MEAN_MOTION":13.11418554,"ECCENTRICITY":0.00014587,"INCLINATION":87.8808,"RA_OF_ASC_NODE":72.68,"ARG_OF_PERICENTER":90.1427,"MEAN_ANOMALY":269.9868,"EPHEMERIS_TYPE":0,"CLASSIFICATION_TYPE":"U","NORAD_CAT_ID":45439,"ELEMENT_SET_NO":999,"REV_AT_EPOCH":26868,"BSTAR":0.00022633515,"MEAN_MOTION_DOT":9.3e-7,"MEAN_MOTION_DDOT":0},{"OBJECT_NAME":"ONEWEB-0037","OBJECT_ID":"2020-020S","EPOCH":"2025-10-01T03:53:50.009568","MEAN_MOTION":13.11416361,"ECCENTRICITY":0.00017588,"INCLINATION":87.881,"RA_OF_ASC_NODE":72.6041,"ARG_OF_PERICENTER":91.0083,"MEAN_ANOMALY":269.1246,"EPHEMERIS_TYPE":0,"CLASSIFICATION_TYPE":"U","NORAD_CAT_ID":45440,"ELEMENT_SET_NO":999,"REV_AT_EPOCH":26874,"BSTAR":-0.0018347901,"MEAN_MOTION_DOT":-6.38e-6,"MEAN_MOTION_DDOT":0},{"OBJECT_NAME":"ONEWEB-0042","OBJECT_ID":"2020-020T","EPOCH":"2025-10-01T04:07:03.708480","MEAN_MOTION":13.11416681,"ECCENTRICITY":0.00016991,"INCLINATION":87.8797,"RA_OF_ASC_NODE":72.6402,"ARG_OF_PERICENTER":88.7394,"MEAN_ANOMALY":271.3928,"EPHEMERIS_TYPE":0,"CLASSIFICATION_TYPE":"U","NORAD_CAT_ID":45441,"ELEMENT_SET_NO":999,"REV_AT_EPOCH":26871,"BSTAR":-0.0014081006,"MEAN_MOTION_DOT":-4.86e-6,"MEAN_MOTION_DDOT":0},{"OBJECT_NAME":"ONEWEB-0098","OBJECT_ID":"2020-020U","EPOCH":"2025-10-01T04:01:09.388128","MEAN_MOTION":13.11416565,"ECCENTRICITY":0.00016528,"INCLINATION":87.8797,"RA_OF_ASC_NODE":72.6515,"ARG_OF_PERICENTER":95.1941,"MEAN_ANOMALY":264.9375,"EPHEMERIS_TYPE":0,"CLASSIFICATION_TYPE":"U","NORAD_CAT_ID":45442,"ELEMENT_SET_NO":999,"REV_AT_EPOCH":26869,"BSTAR":-0.0019636335,"MEAN_MOTION_DOT":-6.83e-6,"MEAN_MOTION_DDOT":0},{"OBJECT_NAME":"ONEWEB-0055","OBJECT_ID":"2020-020V","EPOCH":"2025-09-30T23:57:00.428832","MEAN_MOTION":13.11414243,"ECCENTRICITY":0.00016717,"INCLINATION":87.8796,"RA_OF_ASC_NODE":72.6871,"ARG_OF_PERICENTER":96.1976,"MEAN_ANOMALY":263.9342,"EPHEMERIS_TYPE":0,"CLASSIFICATION_TYPE":"U","NORAD_CAT_ID":45443,"ELEMENT_SET_NO":999,"REV_AT_EPOCH":26864,"BSTAR":-0.00070435001,"MEAN_MOTION_DOT":-2.37e-6,"MEAN_MOTION_DDOT":0},{"OBJECT_NAME":"ONEWEB-0093","OBJECT_ID":"2020-020W","EPOCH":"2025-10-01T04:51:25.815168","MEAN_MOTION":13.11415088,"ECCENTRICITY":0.00015445,"INCLINATION":87.8801,"RA_OF_ASC_NODE":72.6315,"ARG_OF_PERICENTER":77.2212,"MEAN_ANOMALY":282.9088,"EPHEMERIS_TYPE":0,"CLASSIFICATION_TYPE":"U","NORAD_CAT_ID":45444,"ELEMENT_SET_NO":999,"REV_AT_EPOCH":26873,"BSTAR":0.0010108995,"MEAN_MOTION_DOT":3.71e-6,"MEAN_MOTION_DDOT":0},{"OBJECT_NAME":"ONEWEB-0029","OBJECT_ID":"2020-020X","EPOCH":"2025-09-30T23:44:48.573312","MEAN_MOTION":13.11414897,"ECCENTRICITY":0.00015367,"INCLINATION":87.8801,"RA_OF_ASC_NODE":72.6867,"ARG_OF_PERICENTER":90.2954,"MEAN_ANOMALY":269.835,"EPHEMERIS_TYPE":0,"CLASSIFICATION_TYPE":"U","NORAD_CAT_ID":45445,"ELEMENT_SET_NO":999,"REV_AT_EPOCH":26868,"BSTAR":0.00039428414,"MEAN_MOTION_DOT":1.52e-6,"MEAN_MOTION_DDOT":0},{"OBJECT_NAME":"ONEWEB-0068","OBJECT_ID":"2020-020Y","EPOCH":"2025-10-01T04:51:02.185632","MEAN_MOTION":13.11415842,"ECCENTRICITY":0.0001514,"INCLINATION":87.88,"RA_OF_ASC_NODE":72.6327,"ARG_OF_PERICENTER":88.9322,"MEAN_ANOMALY":271.1979,"EPHEMERIS_TYPE":0,"CLASSIFICATION_TYPE":"U","NORAD_CAT_ID":45446,"ELEMENT_SET_NO":999,"REV_AT_EPOCH":26865,"BSTAR":0.0013599489,"MEAN_MOTION_DOT":4.95e-6,"MEAN_MOTION_DDOT":0},{"OBJECT_NAME":"ONEWEB-0046","OBJECT_ID":"2020-020Z","EPOCH":"2025-09-30T21:19:33.370752","MEAN_MOTION":13.11417493,"ECCENTRICITY":0.00017236,"INCLINATION":87.8797,"RA_OF_ASC_NODE":72.7046,"ARG_OF_PERICENTER":83.5728,"MEAN_ANOMALY":276.5596,"EPHEMERIS_TYPE":0,"CLASSIFICATION_TYPE":"U","NORAD_CAT_ID":45447,"ELEMENT_SET_NO":999,"REV_AT_EPOCH":26862,"BSTAR":0.0015721872,"MEAN_MOTION_DOT":5.7e-6,"MEAN_MOTION_DDOT":0},{"OBJECT_NAME":"ONEWEB-0063","OBJECT_ID":"2020-020AA","EPOCH":"2025-09-30T23:50:54.446208","MEAN_MOTION":13.11413699,"ECCENTRICITY":0.00018682,"INCLINATION":87.8796,"RA_OF_ASC_NODE":72.6819,"ARG_OF_PERICENTER":88.8641,"MEAN_ANOMALY":271.2701,"EPHEMERIS_TYPE":0,"CLASSIFICATION_TYPE":"U","NORAD_CAT_ID":45448,"ELEMENT_SET_NO":999,"REV_AT_EPOCH":26872,"BSTAR":-0.00015688093,"MEAN_MOTION_DOT":-4.3e-7,"MEAN_MOTION_DDOT":0},{"OBJECT_NAME":"ONEWEB-0019","OBJECT_ID":"2020-020AB","EPOCH":"2025-09-30T23:13:04.935936","MEAN_MOTION":13.1141833,"ECCENTRICITY":0.00015867,"INCLINATION":87.8792,"RA_OF_ASC_NODE":72.7024,"ARG_OF_PERICENTER":94.6913,"MEAN_ANOMALY":265.4396,"EPHEMERIS_TYPE":0,"CLASSIFICATION_TYPE":"U","NORAD_CAT_ID":45449,"ELEMENT_SET_NO":999,"REV_AT_EPOCH":26856,"BSTAR":0.001679461,"MEAN_MOTION_DOT":6.08e-6,"MEAN_MOTION_DDOT":0},{"OBJECT_NAME":"ONEWEB-0094","OBJECT_ID":"2020-020AC","EPOCH":"2025-10-01T08:04:37.702272","MEAN_MOTION":13.176456,"ECCENTRICITY":0.00016092,"INCLINATION":87.908,"RA_OF_ASC_NODE":57.3109,"ARG_OF_PERICENTER":95.7189,"MEAN_ANOMALY":264.4126,"EPHEMERIS_TYPE":0,"CLASSIFICATION_TYPE":"U","NORAD_CAT_ID":45450,"ELEMENT_SET_NO":999,"REV_AT_EPOCH":27222,"BSTAR":0.002697748,"MEAN_MOTION_DOT":1.06e-5,"MEAN_MOTION_DDOT":0},{"OBJECT_NAME":"ONEWEB-0087","OBJECT_ID":"2020-020AD","EPOCH":"2025-09-30T16:45:53.012736","MEAN_MOTION":13.11414405,"ECCENTRICITY":0.00013474,"INCLINATION":87.8807,"RA_OF_ASC_NODE":72.6917,"ARG_OF_PERICENTER":87.9095,"MEAN_ANOMALY":272.2188,"EPHEMERIS_TYPE":0,"CLASSIFICATION_TYPE":"U","NORAD_CAT_ID":45451,"ELEMENT_SET_NO":999,"REV_AT_EPOCH":26857,"BSTAR":-0.001396322,"MEAN_MOTION_DOT":-4.82e-6,"MEAN_MOTION_DDOT":0},{"OBJECT_NAME":"ONEWEB-0082","OBJECT_ID":"2020-020AE","EPOCH":"2025-09-30T20:20:56.788800","MEAN_MOTION":13.11415009,"ECCENTRICITY":0.00014608,"INCLINATION":87.8806,"RA_OF_ASC_NODE":72.6873,"ARG_OF_PERICENTER":94.2698,"MEAN_ANOMALY":265.8597,"EPHEMERIS_TYPE":0,"CLASSIFICATION_TYPE":"U","NORAD_CAT_ID":45452,"ELEMENT_SET_NO":999,"REV_AT_EPOCH":26868,"BSTAR":-0.000896417,"MEAN_MOTION_DOT":-3.05e-6,"MEAN_MOTION_DDOT":0}]
